{"id":"199","name":"Mercury ","centerId":"500@10","centerName":"Sun ","epoch":"2000-Jan-01 12:00:00.0000","elementTable":{"periapsis":46001209592.307884,"inclination":0.12226056374145156,"longitudeOfAscendingNode":0.84352702699409,"argumentOfPeriapsis":0.5083146071994438,"timeOfPeriapsis":2451502.287121773,"meanMotion":8.266772512736266e-7,"meanAnomaly":3.0507636758314254,"trueAnomaly":3.0804203690844814,"apoapsis":69816926996.74629,"siderealOrbitPeriod":7600530.070833991,"semiMajorAxis":57909068294.527084,"semiMinorAxis":56671536875.82669,"semiLatusRectum":55460451816.174614,"eccentricity":0.2056302933705567,"linearEccentricity":11907858702.21921},"physicalDataTable":{"meanRadius":2440000,"mass":3.302e+23,"siderealRotationRate":0.00000124001,"siderealRotationPeriod":5067044.061886264,"gravParameter":22031868.55,"obliquity":2.11},"vectorTable":{"position":[-69652614044.35896,0,-4266132208.575184],"velocity":[-2990.528906043534,0,38767.07779143645]}}
